FLOCK 3M-3              
1 42996U 17068K   20120.74851425  .00001916  00000-0  87818-4 0  9996
2 42996  97.3854 228.0020 0013766 281.0884  78.8803 15.21593947138345
FLOCK 3M-4              
1 42997U 17068L   20120.77097200  .00000469  00000-0  24121-4 0  9993
2 42997  97.4131 230.6598 0013759 282.6249  77.3448 15.21165428138335
FLOCK 3M-2              
1 42998U 17068M   20120.73465619  .00001032  00000-0  49346-4 0  9996
2 42998  97.4006 229.4010 0012423 278.2728  81.7099 15.21173370138338
FLOCK 3P'-3             
1 43119U 18004J   20120.75584114  .00000894  00000-0  40662-4 0  9994
2 43119  97.4532 191.8069 0009183 215.4223 144.6405 15.23307195127587
FLOCK 3P'-2             
1 43120U 18004K   20120.73181752  .00000783  00000-0  36182-4 0  9994
2 43120  97.4535 191.7029 0009147 215.7246 144.3379 15.23132761127576
FLOCK 3P'-1             
1 43121U 18004L   20120.79710845  .00002233  00000-0  93749-4 0  9996
2 43121  97.4527 192.3479 0008952 212.6735 147.3950 15.24481944127553
FLOCK 3P'-4             
1 43122U 18004M   20120.73067500  .00000769  00000-0  35564-4 0  9997
2 43122  97.4543 191.7509 0008972 217.6196 142.4414 15.23138711127570
FLOCK 3R-10             
1 43723U 18096E   20120.79639730  .00002613  00000-0  96312-4 0  9999
2 43723  97.4230 195.3132 0015405 298.4148 204.7031 15.28629624 78996
FLOCK 3R-12             
1 43724U 18096F   20120.75737119  .00002003  00000-0  74452-4 0  9990
2 43724  97.4241 195.3058 0015422 299.0804  60.8891 15.28627223 78999
FLOCK 3R-11             
1 43725U 18096G   20120.74432813  .00004230  00000-0  15416-3 0  9991
2 43725  97.4230 195.3131 0015428 299.2871  60.6826 15.28630925 78991
FLOCK 3R-5              
1 43726U 18096H   20120.81450573  .00002894  00000-0  10640-3 0  9991
2 43726  97.4241 195.4223 0015707 299.4635  60.5037 15.28616864 79009
FLOCK 3R-8              
1 43727U 18096J   20120.72499880  .00002985  00000-0  10959-3 0  9990
2 43727  97.4244 195.4067 0015911 300.4663  59.5004 15.28630277 78993
FLOCK 3R-4              
1 43733U 18096Q   20120.82942664  .00003453  00000-0  12613-3 0  9991
2 43733  97.4237 195.6029 0019155 302.5749 126.3006 15.28636137 79014
FLOCK 3R-3              
1 43734U 18096R   20120.80980147  .00002974  00000-0  10900-3 0  9992
2 43734  97.4240 195.6554 0019337 301.8762 197.9377 15.28631425 79011
FLOCK 3R-16             
1 43735U 18096S   20120.81677671  .00002890  00000-0  10509-3 0  9991
2 43735  97.4235 195.7153 0019561 302.2153  57.7190 15.28914920 79032
FLOCK 3R-15             
1 43736U 18096T   20120.73730947  .00001413  00000-0  53936-4 0  9991
2 43736  97.4253 195.5430 0019966 303.4761  56.4569 15.28185094 79001
FLOCK 3R-10             
1 43740U 18096X   20120.76386499  .00001740  00000-0  65050-4 0  9991
2 43740  97.4239 195.2967 0015279 298.3316  61.6382 15.28626526 79026
FLOCK 3R-6              
1 43741U 18096Y   20120.75887166  .00003204  00000-0  11743-3 0  9994
2 43741  97.4239 195.3782 0015955 299.9535 175.1584 15.28630376 79005
FLOCK 3R-7              
1 43742U 18096Z   20120.75501325  .00003773  00000-0  13773-3 0  9991
2 43742  97.4244 195.3932 0015909 300.3304 189.4758 15.28642482 78998
FLOCK 3R-1              
1 43747U 18096AE  20120.77782934  .00001578  00000-0  59183-4 0  9992
2 43747  97.4250 195.6318 0019127 302.3600  57.5787 15.28622094 79027
FLOCK 3R-2              
1 43748U 18096AF  20120.79317871  .00003072  00000-0  11074-3 0  9996
2 43748  97.4243 195.7838 0018574 301.4181  58.5242 15.29165920 79036
FLOCK 3R-14             
1 43749U 18096AG  20120.77170786  .00003460  00000-0  12236-3 0  9999
2 43749  97.4247 196.0785 0018963 301.6699  58.2691 15.29699869 79055
FLOCK 3R-13             
1 43750U 18096AH  20120.74342840  .00002852  00000-0  10197-3 0  9998
2 43750  97.4237 195.9496 0019172 302.4101  57.5284 15.29488097 79041
FLOCK 3S-1              
1 43769U 18099M   20120.65469342  .00000112  00000-0  15495-4 0  9992
2 43769  97.7044 192.5761 0014071   4.4701 355.6643 14.94929415 76623
FLOCK 3S-3              
1 43788U 18099AG  20120.83465784  .00000389  00000-0  40401-4 0  9990
2 43788  97.7096 193.3954 0014840   1.1971 358.9283 14.95373257 76669
SKYSAT-C12              
1 43797U 18099AR  20120.75678970  .00001348  00000-0  38674-4 0  9999
2 43797  97.2174 192.6841 0003010 102.9400 257.2182 15.37597367 77715
SKYSAT-C13              
1 43802U 18099AW  20120.77400794  .00000992  00000-0  33700-4 0  9994
2 43802  97.2509 193.1528 0004336 182.6737 177.4483 15.32780813 77567
FLOCK 3S-2              
1 43821U 18099BR  20120.76237150  .00000331  00000-0  34940-4 0  9992
2 43821  97.7087 193.4384 0014037   0.4897 359.6336 14.95580222 76368
FLOCK 3K-3              
1 43892U 18111S   20120.75485674  .00001475  00000-0  60780-4 0  9991
2 43892  97.2699  22.1284 0022412 324.4722  35.5023 15.25440507 74602
FLOCK 3K-4              
1 43893U 18111T   20120.74940591  .00003474  00000-0  13919-3 0  9997
2 43893  97.2695  22.1353 0022187 324.2176  35.7574 15.25467402 74602
FLOCK 3K-1              
1 43894U 18111U   20120.61251034  .00003538  00000-0  14161-3 0  9992
2 43894  97.2690  21.9807 0022173 324.9918  34.9862 15.25492447 74580
FLOCK 3K-2              
1 43895U 18111V   20120.67251020  .00002479  00000-0  10005-3 0  9990
2 43895  97.2694  22.0709 0022420 324.5053  35.4693 15.25498908 74596
FLOCK 3K-6              
1 43896U 18111W   20120.79796929  .00003376  00000-0  13527-3 0  9995
2 43896  97.2693  22.2030 0020541 320.9899  38.9857 15.25525978 74616
FLOCK 3K-5              
1 43899U 18111Z   20120.79220700  .00003360  00000-0  13455-3 0  9990
2 43899  97.2697  22.2286 0020639 320.5648  39.4087 15.25539197 74611
FLOCK 3K-8              
1 43901U 18111AB  20120.78619872  .00002576  00000-0  10374-3 0  9990
2 43901  97.2690  22.1976 0020627 320.7925  39.1818 15.25566748 74611
FLOCK 3K-7              
1 43902U 18111AC  20120.78034916  .00001812  00000-0  73768-4 0  9990
2 43902  97.2697  22.2173 0020904 320.0988  39.8713 15.25581500 74613
FLOCK 3K-12             
1 43903U 18111AD  20120.76996943  .00002562  00000-0  10327-3 0  9990
2 43903  97.2693  22.2269 0020457 320.9581  39.0179 15.25548549 74611
FLOCK 3K-11             
1 43904U 18111AE  20120.76638492  .00001591  00000-0  65436-4 0  9996
2 43904  97.2699  22.2508 0020592 319.7414  40.2298 15.25426240 74614
FLOCK 3K-10             
1 43905U 18111AF  20120.62971735  .00001376  00000-0  56956-4 0  9990
2 43905  97.2699  22.1328 0020420 320.1116  39.8621 15.25437541 74596
FLOCK 3K-9              
1 43906U 18111AG  20120.77438223  .00001671  00000-0  68271-4 0  9998
2 43906  97.2697  22.2342 0020511 319.7771  40.1949 15.25573175 74619
FLOCK 4A-1              
1 44079U 19018B   20120.79115269  .00002365  00000-0  10423-3 0  9997
2 44079  97.4120 182.0610 0011710 342.3303  17.7524 15.22746425 59991
FLOCK 4A-2              
1 44080U 19018C   20120.73664525  .00002352  00000-0  10421-3 0  9991
2 44080  97.4126 181.9968 0012016 343.2536  16.8302 15.22562467 59975
FLOCK 4A-3              
1 44081U 19018D   20120.79046063  .00002359  00000-0  10424-3 0  9999
2 44081  97.4122 182.0692 0012144 344.3306  15.7553 15.22647142 59999
FLOCK 4A-4              
1 44082U 19018E   20120.70705446  .00002159  00000-0  95561-4 0  9992
2 44082  97.4126 182.0380 0012313 345.3178  14.7699 15.22686428 59972
FLOCK 4A-17             
1 44088U 19018L   20120.78422943  .00002419  00000-0  10631-3 0  9997
2 44088  97.4132 182.2644 0012948 349.6441  10.4527 15.22795681 60005
FLOCK 4A-18             
1 44089U 19018M   20120.78758210  .00002664  00000-0  11683-3 0  9997
2 44089  97.4134 182.2700 0012968 350.2701   9.8282 15.22782687 60002
FLOCK 4A-19             
1 44090U 19018N   20120.82242436  .00001389  00000-0  62223-4 0  9992
2 44090  97.4136 182.3617 0012975 350.4689   9.6299 15.22872040 60019
FLOCK 4A-20             
1 44091U 19018P   20120.70167065  .00002090  00000-0  92094-4 0  9993
2 44091  97.4128 182.2297 0013080 351.4640   8.6372 15.22870858 59980
FLOCK 4A-8              
1 44092U 19018Q   20120.72489334  .00001335  00000-0  59903-4 0  9995
2 44092  97.4143 182.3501 0010566 355.7407   4.3738 15.22885508 59999
FLOCK 4A-7              
1 44093U 19018R   20120.81034881  .00002538  00000-0  11154-3 0  9990
2 44093  97.4144 182.4193 0010661 356.2136   3.9018 15.22772913 60016
FLOCK 4A-6              
1 44094U 19018S   20120.73460304  .00001811  00000-0  80516-4 0  9997
2 44094  97.4144 182.3457 0010719 357.3514   2.7664 15.22746642 60008
FLOCK 4A-5              
1 44095U 19018T   20120.71316041  .00003543  00000-0  15407-3 0  9994
2 44095  97.4138 182.3807 0010824 358.1894   1.9302 15.22866643 59998
FLOCK 4A-11             
1 44096U 19018U   20120.70262399  .00000931  00000-0  42745-4 0  9994
2 44096  97.4145 182.3911 0010992 359.5039   0.6185 15.22854517 59997
FLOCK 4A-10             
1 44097U 19018V   20120.70619600  .00001350  00000-0  60571-4 0  9999
2 44097  97.4142 182.3731 0011173   0.1074   0.0163 15.22864127 59993
FLOCK 4A-9              
1 44098U 19018W   20120.69874477  .00000830  00000-0  38418-4 0  9990
2 44098  97.4146 182.4006 0011244   1.1347 358.9913 15.22858409 59991
FLOCK 4A-16             
1 44099U 19018X   20120.76016312  .00000977  00000-0  44680-4 0  9995
2 44099  97.4139 182.4434 0011411   1.3723 358.7543 15.22865270 60011
FLOCK 4A-15             
1 44100U 19018Y   20120.74578623  .00001429  00000-0  63848-4 0  9994
2 44100  97.4141 182.4638 0011621   3.0101 357.1203 15.22921840 60017
FLOCK 4A-14             
1 44101U 19018Z   20120.71029238  .00001838  00000-0  80632-4 0  9999
2 44101  97.4134 182.4932 0011519   5.5307 354.6055 15.23191798 60017
FLOCK 4A-13             
1 44102U 19018AA  20120.81421197  .00000777  00000-0  36132-4 0  9998
2 44102  97.4138 182.5096 0012146   3.2195 356.9118 15.22859711 60022
